[{"OBJECT_NAME":"CSTP 1.2 (STC 1.2)","OBJECT_ID":"2023-091W","EPOCH":"2026-03-09T23:12:27.821952","MEAN_MOTION":15.2718076,"ECCENTRICITY":0.00204388,"INCLINATION":97.5258,"RA_OF_ASC_NODE":134.3262,"ARG_OF_PERICENTER":84.9592,"MEAN_ANOMALY":275.3979,"EPHEMERIS_TYPE":0,"CLASSIFICATION_TYPE":"U","NORAD_CAT_ID":57186,"ELEMENT_SET_NO":999,"REV_AT_EPOCH":14930,"BSTAR":0.00043035718,"MEAN_MOTION_DOT":0.00011466,"MEAN_MOTION_DDOT":0},{"OBJECT_NAME":"STARLINK-30277","OBJECT_ID":"2023-122P","EPOCH":"2026-03-09T01:53:04.350912","MEAN_MOTION":15.27517907,"ECCENTRICITY":0.00012176,"INCLINATION":43.002,"RA_OF_ASC_NODE":313.8516,"ARG_OF_PERICENTER":270.3768,"MEAN_ANOMALY":89.6944,"EPHEMERIS_TYPE":0,"CLASSIFICATION_TYPE":"U","NORAD_CAT_ID":57645,"ELEMENT_SET_NO":999,"REV_AT_EPOCH":14378,"BSTAR":-0.00012984328,"MEAN_MOTION_DOT":-3.826e-5,"MEAN_MOTION_DDOT":0}]
